start=new Date('2023-01-30T00:00:00.000Z').valueOf();
sats=[{"EPHEMERIS_TYPE":"0","MEAN_ANOMALY":"267.2223","CLASSIFICATION_TYPE":"U","TLE_LINE1":"1 51469U 22010P   23029.87138267  .00003157  00000-0  21637-3 0  9996","OBJECT_NAME":"STARLINK-3182","ECCENTRICITY":"0.00011070","MEAN_MOTION_DDOT":"0.0000000000000","RCS_SIZE":"LARGE","OBJECT_TYPE":"PAYLOAD","MEAN_MOTION_DOT":"0.00003157","PERIOD":"95.438","COUNTRY_CODE":"US","ELEMENT_SET_NO":"999","GP_ID":"223933263","MEAN_MOTION":"15.08839917","BSTAR":"0.00021637000000","EPOCH":"2023-01-29T20:54:47.462688","NORAD_CAT_ID":"51469","LAUNCH_DATE":"2022-02-03","TLE_LINE2":"2 51469  53.2159 333.5276 0001107  92.8896 267.2223 15.08839917 56008","OBJECT_ID":"2022-010P","REV_AT_EPOCH":"5600","SEMIMAJOR_AXIS":"6917.881","PERIAPSIS":"538.980","ARG_OF_PERICENTER":"92.8896","DECAY_DATE":null,"REF_FRAME":"TEME","INCLINATION":"53.2159","APOAPSIS":"540.511","RA_OF_ASC_NODE":"333.5276","TIME_SYSTEM":"UTC","CENTER_NAME":"EARTH","MEAN_ELEMENT_THEORY":"SGP4","FILE":"3764960","SITE":"AFETR"},{"ECCENTRICITY":"0.00011200","TLE_LINE1":"1 51471U 22010R   23029.25305727  .00036608  00000-0  19867-2 0  9996","OBJECT_NAME":"STARLINK-3165","MEAN_ANOMALY":"246.5620","EPHEMERIS_TYPE":"0","CLASSIFICATION_TYPE":"U","OBJECT_TYPE":"PAYLOAD","RCS_SIZE":"LARGE","MEAN_MOTION_DDOT":"0.0000000000000","COUNTRY_CODE":"US","PERIOD":"95.098","MEAN_MOTION_DOT":"0.00036608","MEAN_MOTION":"15.14229842","BSTAR":"0.00198670000000","GP_ID":"223958107","ELEMENT_SET_NO":"999","TLE_LINE2":"2 51471  53.2179 329.5965 0001120 113.5492 246.5620 15.14229842 55503","OBJECT_ID":"2022-010R","REV_AT_EPOCH":"5550","SEMIMAJOR_AXIS":"6901.455","NORAD_CAT_ID":"51471","LAUNCH_DATE":"2022-02-03","EPOCH":"2023-01-29T06:04:24.148128","DECAY_DATE":null,"ARG_OF_PERICENTER":"113.5492","PERIAPSIS":"522.547","INCLINATION":"53.2179","REF_FRAME":"TEME","APOAPSIS":"524.093","SITE":"AFETR","FILE":"3765015","RA_OF_ASC_NODE":"329.5965","CENTER_NAME":"EARTH","MEAN_ELEMENT_THEORY":"SGP4","TIME_SYSTEM":"UTC"},{"APOAPSIS":"540.656","INCLINATION":"53.2151","REF_FRAME":"TEME","CENTER_NAME":"EARTH","TIME_SYSTEM":"UTC","MEAN_ELEMENT_THEORY":"SGP4","RA_OF_ASC_NODE":"333.6064","SITE":"AFETR","FILE":"3765015","EPOCH":"2023-01-29T20:28:17.937696","REV_AT_EPOCH":"5550","SEMIMAJOR_AXIS":"6917.873","TLE_LINE2":"2 51472  53.2151 333.6064 0001327  78.9337 281.1804 15.08842387 55508","OBJECT_ID":"2022-010S","LAUNCH_DATE":"2022-02-03","NORAD_CAT_ID":"51472","ARG_OF_PERICENTER":"78.9337","PERIAPSIS":"538.820","DECAY_DATE":null,"PERIOD":"95.437","MEAN_MOTION_DOT":"0.00001037","COUNTRY_CODE":"US","ELEMENT_SET_NO":"999","GP_ID":"223956856","BSTAR":"0.00008321500000","MEAN_MOTION":"15.08842387","OBJECT_NAME":"STARLINK-3415","TLE_LINE1":"1 51472U 22010S   23029.85298539  .00001037  00000-0  83215-4 0  9993","CLASSIFICATION_TYPE":"U","EPHEMERIS_TYPE":"0","MEAN_ANOMALY":"281.1804","ECCENTRICITY":"0.00013270","MEAN_MOTION_DDOT":"0.0000000000000","OBJECT_TYPE":"PAYLOAD","RCS_SIZE":"MEDIUM"},{"TIME_SYSTEM":"UTC","CENTER_NAME":"EARTH","MEAN_ELEMENT_THEORY":"SGP4","RA_OF_ASC_NODE":"25.6740","SITE":"AFETR","FILE":"3765015","APOAPSIS":"540.554","REF_FRAME":"TEME","INCLINATION":"53.2169","ARG_OF_PERICENTER":"85.4779","PERIAPSIS":"538.894","DECAY_DATE":null,"EPOCH":"2023-01-29T09:24:34.104960","SEMIMAJOR_AXIS":"6917.859","REV_AT_EPOCH":"5203","TLE_LINE2":"2 51714  53.2169  25.6740 0001200  85.4779 274.6350 15.08847048 52035","OBJECT_ID":"2022-016A","LAUNCH_DATE":"2022-02-21","NORAD_CAT_ID":"51714","GP_ID":"223958365","ELEMENT_SET_NO":"999","BSTAR":"0.00022490000000","MEAN_MOTION":"15.08847048","PERIOD":"95.437","MEAN_MOTION_DOT":"0.00003294","COUNTRY_CODE":"US","MEAN_MOTION_DDOT":"0.0000000000000","OBJECT_TYPE":"PAYLOAD","RCS_SIZE":"LARGE","OBJECT_NAME":"STARLINK-3528","TLE_LINE1":"1 51714U 22016A   23029.39206140  .00003294  00000-0  22490-3 0  9998","CLASSIFICATION_TYPE":"U","EPHEMERIS_TYPE":"0","MEAN_ANOMALY":"274.6350","ECCENTRICITY":"0.00012000"},{"PERIAPSIS":"538.909","ARG_OF_PERICENTER":"88.8950","DECAY_DATE":null,"EPOCH":"2023-01-29T09:08:40.143552","NORAD_CAT_ID":"51715","LAUNCH_DATE":"2022-02-21","TLE_LINE2":"2 51715  53.2170  25.7243 0001178  88.8950 271.2177 15.08846863 53168","OBJECT_ID":"2022-016B","SEMIMAJOR_AXIS":"6917.859","REV_AT_EPOCH":"5316","RA_OF_ASC_NODE":"25.7243","TIME_SYSTEM":"UTC","MEAN_ELEMENT_THEORY":"SGP4","CENTER_NAME":"EARTH","FILE":"3765015","SITE":"AFETR","INCLINATION":"53.2170","REF_FRAME":"TEME","APOAPSIS":"540.539","MEAN_MOTION_DDOT":"0.0000000000000","RCS_SIZE":"LARGE","OBJECT_TYPE":"PAYLOAD","MEAN_ANOMALY":"271.2177","EPHEMERIS_TYPE":"0","CLASSIFICATION_TYPE":"U","TLE_LINE1":"1 51715U 22016B   23029.38102018  .00000159  00000-0  28070-4 0  9995","OBJECT_NAME":"STARLINK-3533","ECCENTRICITY":"0.00011780","GP_ID":"223958116","ELEMENT_SET_NO":"999","MEAN_MOTION":"15.08846863","BSTAR":"0.00002807000000","MEAN_MOTION_DOT":"0.00000159","PERIOD":"95.437","COUNTRY_CODE":"US"},{"FILE":"3765015","SITE":"AFETR","RA_OF_ASC_NODE":"25.6852","CENTER_NAME":"EARTH","MEAN_ELEMENT_THEORY":"SGP4","TIME_SYSTEM":"UTC","REF_FRAME":"TEME","INCLINATION":"53.2152","APOAPSIS":"540.461","DECAY_DATE":null,"PERIAPSIS":"538.937","ARG_OF_PERICENTER":"82.9900","NORAD_CAT_ID":"51716","LAUNCH_DATE":"2022-02-21","TLE_LINE2":"2 51716  53.2152  25.6852 0001101  82.9900 277.1217 15.08855224 52036","OBJECT_ID":"2022-016C","SEMIMAJOR_AXIS":"6917.834","REV_AT_EPOCH":"5203","EPOCH":"2023-01-29T09:19:16.446720","BSTAR":"0.00060027000000","MEAN_MOTION":"15.08855224","ELEMENT_SET_NO":"999","GP_ID":"223956865","COUNTRY_CODE":"US","MEAN_MOTION_DOT":"0.00009282","PERIOD":"95.437","RCS_SIZE":"LARGE","OBJECT_TYPE":"PAYLOAD","MEAN_MOTION_DDOT":"0.0000000000000","ECCENTRICITY":"0.00011010","EPHEMERIS_TYPE":"0","MEAN_ANOMALY":"277.1217","CLASSIFICATION_TYPE":"U","TLE_LINE1":"1 51716U 22016C   23029.38838480  .00009282  00000-0  60027-3 0  9998","OBJECT_NAME":"STARLINK-3543"},{"GP_ID":"223957114","ELEMENT_SET_NO":"999","MEAN_MOTION":"15.08846611","BSTAR":"0.00016289000000","PERIOD":"95.437","MEAN_MOTION_DOT":"0.00002306","COUNTRY_CODE":"US","MEAN_MOTION_DDOT":"0.0000000000000","OBJECT_TYPE":"PAYLOAD","RCS_SIZE":"LARGE","OBJECT_NAME":"STARLINK-3445","TLE_LINE1":"1 51717U 22016D   23029.38470100  .00002306  00000-0  16289-3 0  9991","CLASSIFICATION_TYPE":"U","MEAN_ANOMALY":"278.7140","EPHEMERIS_TYPE":"0","ECCENTRICITY":"0.00012470","CENTER_NAME":"EARTH","MEAN_ELEMENT_THEORY":"SGP4","TIME_SYSTEM":"UTC","RA_OF_ASC_NODE":"25.7057","SITE":"AFETR","FILE":"3765015","APOAPSIS":"540.588","REF_FRAME":"TEME","INCLINATION":"53.2167","PERIAPSIS":"538.863","ARG_OF_PERICENTER":"81.3994","DECAY_DATE":null,"EPOCH":"2023-01-29T09:13:58.166400","REV_AT_EPOCH":"5203","SEMIMAJOR_AXIS":"6917.860","OBJECT_ID":"2022-016D","TLE_LINE2":"2 51717  53.2167  25.7057 0001247  81.3994 278.7140 15.08846611 52030","LAUNCH_DATE":"2022-02-21","NORAD_CAT_ID":"51717"},{"BSTAR":"0.00019792000000","MEAN_MOTION":"15.08848049","ELEMENT_SET_NO":"999","GP_ID":"223957866","COUNTRY_CODE":"US","MEAN_MOTION_DOT":"0.00002864","PERIOD":"95.437","RCS_SIZE":"LARGE","OBJECT_TYPE":"PAYLOAD","MEAN_MOTION_DDOT":"0.0000000000000","ECCENTRICITY":"0.00012830","CLASSIFICATION_TYPE":"U","EPHEMERIS_TYPE":"0","MEAN_ANOMALY":"268.6357","OBJECT_NAME":"STARLINK-3546","TLE_LINE1":"1 51718U 22016E   23029.36997972  .00002864  00000-0  19792-3 0  9992","FILE":"3765015","SITE":"AFETR","TIME_SYSTEM":"UTC","CENTER_NAME":"EARTH","MEAN_ELEMENT_THEORY":"SGP4","RA_OF_ASC_NODE":"25.7599","APOAPSIS":"540.608","REF_FRAME":"TEME","INCLINATION":"53.2172","DECAY_DATE":null,"ARG_OF_PERICENTER":"91.4782","PERIAPSIS":"538.833","LAUNCH_DATE":"2022-02-21","NORAD_CAT_ID":"51718","SEMIMAJOR_AXIS":"6917.856","REV_AT_EPOCH":"5315","TLE_LINE2":"2 51718  53.2172  25.7599 0001283  91.4782 268.6357 15.08848049 53154","OBJECT_ID":"2022-016E","EPOCH":"2023-01-29T08:52:46.247808"},{"OBJECT_TYPE":"PAYLOAD","RCS_SIZE":"LARGE","MEAN_MOTION_DDOT":"0.0000000000000","ECCENTRICITY":"0.00010460","OBJECT_NAME":"STARLINK-3540","TLE_LINE1":"1 51719U 22016F   23029.37734687  .00006063  00000-0  39868-3 0  9997","CLASSIFICATION_TYPE":"U","EPHEMERIS_TYPE":"0","MEAN_ANOMALY":"290.7699","MEAN_MOTION":"15.08839740","BSTAR":"0.00039868000000","ELEMENT_SET_NO":"999","GP_ID":"223958616","COUNTRY_CODE":"US","PERIOD":"95.438","MEAN_MOTION_DOT":"0.00006063","DECAY_DATE":null,"PERIAPSIS":"539.023","ARG_OF_PERICENTER":"69.3405","REV_AT_EPOCH":"5203","SEMIMAJOR_AXIS":"6917.881","TLE_LINE2":"2 51719  53.2155  25.7438 0001046  69.3405 290.7699 15.08839740 52030","OBJECT_ID":"2022-016F","LAUNCH_DATE":"2022-02-21","NORAD_CAT_ID":"51719","EPOCH":"2023-01-29T09:03:22.769568","SITE":"AFETR","FILE":"3765015","CENTER_NAME":"EARTH","TIME_SYSTEM":"UTC","MEAN_ELEMENT_THEORY":"SGP4","RA_OF_ASC_NODE":"25.7438","APOAPSIS":"540.470","REF_FRAME":"TEME","INCLINATION":"53.2155"},{"ECCENTRICITY":"0.00011340","CLASSIFICATION_TYPE":"U","MEAN_ANOMALY":"266.8619","EPHEMERIS_TYPE":"0","OBJECT_NAME":"STARLINK-3526","TLE_LINE1":"1 51720U 22016G   23029.36629747  .00000009  00000-0  18669-4 0  9999","RCS_SIZE":"LARGE","OBJECT_TYPE":"PAYLOAD","MEAN_MOTION_DDOT":"0.0000000000000","COUNTRY_CODE":"US","MEAN_MOTION_DOT":"0.00000009","PERIOD":"95.437","MEAN_MOTION":"15.08853115","BSTAR":"0.00001866900000","GP_ID":"223957364","ELEMENT_SET_NO":"999","LAUNCH_DATE":"2022-02-21","NORAD_CAT_ID":"51720","REV_AT_EPOCH":"5202","SEMIMAJOR_AXIS":"6917.840","TLE_LINE2":"2 51720  53.2168  25.7866 0001134  93.2503 266.8619 15.08853115 52021","OBJECT_ID":"2022-016G","EPOCH":"2023-01-29T08:47:28.101408","DECAY_DATE":null,"PERIAPSIS":"538.921","ARG_OF_PERICENTER":"93.2503","APOAPSIS":"540.490","REF_FRAME":"TEME","INCLINATION":"53.2168","FILE":"3765015","SITE":"AFETR","TIME_SYSTEM":"UTC","CENTER_NAME":"EARTH","MEAN_ELEMENT_THEORY":"SGP4","RA_OF_ASC_NODE":"25.7866"}];
